OBJECT_NAME,OBJECT_ID,EPOCH,MEAN_MOTION,ECCENTRICITY,INCLINATION,RA_OF_ASC_NODE,ARG_OF_PERICENTER,MEAN_ANOMALY,EPHEMERIS_TYPE,CLASSIFICATION_TYPE,NORAD_CAT_ID,ELEMENT_SET_NO,REV_AT_EPOCH,BSTAR,MEAN_MOTION_DOT,MEAN_MOTION_DDOT
IRIDIUM 154,2018-061F,2026-06-08T05:33:18.428256,14.34217919,.00020418,86.3969,60.5513,86.4785,273.6644,0,U,43574,999,41212,.19412867E-4,.74E-6,0
IRIDIUM 163,2018-061G,2026-06-08T05:05:53.381760,14.34221509,.0002138,86.3964,60.4750,83.8055,276.3385,0,U,43575,999,41209,.71979802E-4,.221E-5,0
IRIDIUM 156,2018-061H,2026-06-08T04:29:22.292448,14.34219520,.00021244,86.3965,60.4925,80.8236,279.3200,0,U,43576,999,41208,.80975089E-4,.247E-5,0
IRIDIUM 164,2018-061J,2026-06-08T05:42:26.402976,14.34217535,.00020644,86.3968,60.5115,88.0511,272.0921,0,U,43577,999,41213,.41826634E-4,.137E-5,0
IRIDIUM 159,2018-061K,2026-06-08T04:56:46.296960,14.34219486,.00022955,86.3966,60.4619,85.1952,274.9505,0,U,43578,999,41209,.77102303E-4,.236E-5,0
IRIDIUM 180,2019-002A,2026-06-08T01:35:06.898848,14.34218146,.00022449,86.3973,357.4117,89.0670,271.0783,0,U,43922,999,38768,.15148623E-4,.62E-6,0
IRIDIUM 176,2019-002B,2026-06-08T01:13:53.547744,14.72255457,.00022029,86.6095,357.3625,90.9520,269.1949,0,U,43923,999,39790,.13249899E-3,.86E-5,0
IRIDIUM 168,2019-002C,2026-06-07T22:05:02.966208,14.34217731,.00021955,86.3977,357.5497,89.1500,270.9947,0,U,43924,999,38764,.6840828E-5,.39E-6,0
IRIDIUM 173,2019-002D,2026-06-08T01:07:42.818304,14.34217656,.00022431,86.3974,357.3858,86.7216,273.4236,0,U,43925,999,38764,.53685533E-4,.17E-5,0
IRIDIUM 169,2019-002E,2026-06-08T03:22:13.464768,14.38610471,.00021577,86.4235,28.9760,70.6451,289.4981,0,U,43926,999,38892,.84333969E-4,.278E-5,0
IRIDIUM 172,2019-002F,2026-06-08T02:39:02.886912,14.34218217,.00022712,86.3972,357.3673,89.3648,270.7808,0,U,43927,999,38766,.20524034E-4,.77E-6,0
IRIDIUM 175,2019-002G,2026-06-07T22:02:22.722720,14.43607824,.00013174,86.4506,294.3962,218.9968,141.1139,0,U,43928,999,39764,.10396248E-3,.372E-5,0
IRIDIUM 171,2019-002H,2026-06-08T02:11:38.904864,14.34217836,.00020312,86.3982,357.6802,87.4042,272.7386,0,U,43929,999,38765,.8102756E-5,.42E-6,0
IRIDIUM 170,2019-002J,2026-06-08T01:22:47.883360,14.72253981,.00025398,86.6093,357.3626,89.0779,271.0729,0,U,43930,999,39791,.36320546E-4,.254E-5,0
IRIDIUM 167,2019-002K,2026-06-08T00:22:02.889408,14.34217622,.00018614,86.3973,357.4292,85.6981,274.4428,0,U,43931,999,38764,.791448E-6,.22E-6,0
IRIDIUM 181,2023-068S,2026-06-08T05:34:30.529920,14.43309912,.00022875,86.4504,60.5337,90.7121,269.4342,0,U,56726,999,16114,.90086828E-4,.323E-5,0
IRIDIUM 177,2023-068T,2026-06-07T22:13:19.577856,14.80224059,.00024434,86.1960,333.1913,85.7482,274.4018,0,U,56727,999,16499,.16247787E-3,.1261E-4,0
IRIDIUM 174,2023-068U,2026-06-08T01:04:59.899872,14.72251768,.00025771,86.6102,357.5142,85.5444,274.6067,0,U,56728,999,16467,.12957517E-3,.842E-5,0
IRIDIUM 178,2023-068V,2026-06-08T04:27:03.080448,14.80218578,.00026703,86.6546,29.1226,89.0169,271.1359,0,U,56729,999,16503,.14073582E-3,.1095E-4,0
IRIDIUM 179,2023-068W,2026-06-08T04:19:20.528544,14.80235239,.00023995,86.6788,38.0773,87.2979,272.8518,0,U,56730,999,16503,.12739373E-3,.994E-5,0
