IRIDIUM 154             
1 43574U 18061F   26159.23146329  .00000074  00000+0  19413-4 0  9994
2 43574  86.3969  60.5513 0002041  86.4785 273.6644 14.34217919412124
IRIDIUM 163             
1 43575U 18061G   26159.21242340  .00000221  00000+0  71980-4 0  9994
2 43575  86.3964  60.4750 0002138  83.8055 276.3385 14.34221509412098
IRIDIUM 156             
1 43576U 18061H   26159.18706357  .00000247  00000+0  80975-4 0  9996
2 43576  86.3965  60.4925 0002124  80.8236 279.3200 14.34219520412085
IRIDIUM 164             
1 43577U 18061J   26159.23780559  .00000137  00000+0  41827-4 0  9990
2 43577  86.3968  60.5115 0002064  88.0511 272.0921 14.34217535412130
IRIDIUM 159             
1 43578U 18061K   26159.20609140  .00000236  00000+0  77102-4 0  9999
2 43578  86.3966  60.4619 0002295  85.1952 274.9505 14.34219486412091
IRIDIUM 180             
1 43922U 19002A   26159.06605207  .00000062  00000+0  15149-4 0  9992
2 43922  86.3973 357.4117 0002244  89.0670 271.0783 14.34218146387682
IRIDIUM 176             
1 43923U 19002B   26159.05131421  .00000860  00000+0  13250-3 0  9990
2 43923  86.6095 357.3625 0002202  90.9520 269.1949 14.72255457397909
IRIDIUM 168             
1 43924U 19002C   26158.92017322  .00000039  00000+0  68408-5 0  9994
2 43924  86.3977 357.5497 0002195  89.1500 270.9947 14.34217731387643
IRIDIUM 173             
1 43925U 19002D   26159.04702336  .00000170  00000+0  53686-4 0  9992
2 43925  86.3974 357.3858 0002243  86.7216 273.4236 14.34217656387646
IRIDIUM 169             
1 43926U 19002E   26159.14043362  .00000278  00000+0  84334-4 0  9994
2 43926  86.4235  28.9760 0002157  70.6451 289.4981 14.38610471388920
IRIDIUM 172             
1 43927U 19002F   26159.11045008  .00000077  00000+0  20524-4 0  9999
2 43927  86.3972 357.3673 0002271  89.3648 270.7808 14.34218217387661
IRIDIUM 175             
1 43928U 19002G   26158.91831855  .00000372  00000+0  10396-3 0  9993
2 43928  86.4506 294.3962 0001317 218.9968 141.1139 14.43607824397645
IRIDIUM 171             
1 43929U 19002H   26159.09142251  .00000042  00000+0  81028-5 0  9995
2 43929  86.3982 357.6802 0002031  87.4042 272.7386 14.34217836387650
IRIDIUM 170             
1 43930U 19002J   26159.05749865  .00000254  00000+0  36321-4 0  9997
2 43930  86.6093 357.3626 0002539  89.0779 271.0729 14.72253981397913
IRIDIUM 167             
1 43931U 19002K   26159.01531122  .00000022  00000+0  79145-6 0  9995
2 43931  86.3973 357.4292 0001861  85.6981 274.4428 14.34217622387644
IRIDIUM 181             
1 56726U 23068S   26159.23229780  .00000323  00000+0  90087-4 0  9996
2 56726  86.4504  60.5337 0002287  90.7121 269.4342 14.43309912161147
IRIDIUM 177             
1 56727U 23068T   26158.92592104  .00001261  00000+0  16248-3 0  9993
2 56727  86.1960 333.1913 0002443  85.7482 274.4018 14.80224059164999
IRIDIUM 174             
1 56728U 23068U   26159.04513773  .00000842  00000+0  12958-3 0  9991
2 56728  86.6102 357.5142 0002577  85.5444 274.6067 14.72251768164670
IRIDIUM 178             
1 56729U 23068V   26159.18545232  .00001095  00000+0  14074-3 0  9994
2 56729  86.6546  29.1226 0002670  89.0169 271.1359 14.80218578165033
IRIDIUM 179             
1 56730U 23068W   26159.18009871  .00000994  00000+0  12739-3 0  9993
2 56730  86.6788  38.0773 0002399  87.2979 272.8518 14.80235239165034
